CCSDS_OMM_VERS = 2.0
CREATION_DATE  = 
ORIGINATOR     = 

OBJECT_NAME    = STARLINK-37078
OBJECT_ID      = 2026-050H
CENTER_NAME    = EARTH
REF_FRAME      = TEME
TIME_SYSTEM    = UTC
MEAN_ELEMENT_THEORY = SGP/SGP4

EPOCH          = 2026-04-01T12:08:30.222240
MEAN_MOTION    = 15.81012905
ECCENTRICITY   = .0001096
INCLINATION    = 53.1582
RA_OF_ASC_NODE = 167.4349
ARG_OF_PERICENTER = 110.1221
MEAN_ANOMALY   = 249.9920

EPHEMERIS_TYPE = 0
CLASSIFICATION_TYPE = U
NORAD_CAT_ID   = 68174
ELEMENT_SET_NO = 999
REV_AT_EPOCH   = 408
BSTAR          = .17468E-2
MEAN_MOTION_DOT = .361214E-2
MEAN_MOTION_DDOT = 0

CCSDS_OMM_VERS = 2.0
CREATION_DATE  = 
ORIGINATOR     = 

OBJECT_NAME    = STARLINK-36886
OBJECT_ID      = 2026-050J
CENTER_NAME    = EARTH
REF_FRAME      = TEME
TIME_SYSTEM    = UTC
MEAN_ELEMENT_THEORY = SGP/SGP4

EPOCH          = 2026-04-01T12:07:25.512096
MEAN_MOTION    = 15.80992620
ECCENTRICITY   = .0000842
INCLINATION    = 53.1587
RA_OF_ASC_NODE = 167.4299
ARG_OF_PERICENTER = 104.1389
MEAN_ANOMALY   = 255.9727

EPHEMERIS_TYPE = 0
CLASSIFICATION_TYPE = U
NORAD_CAT_ID   = 68175
ELEMENT_SET_NO = 999
REV_AT_EPOCH   = 408
BSTAR          = .14069E-2
MEAN_MOTION_DOT = .28802E-2
MEAN_MOTION_DDOT = 0

CCSDS_OMM_VERS = 2.0
CREATION_DATE  = 
ORIGINATOR     = 

OBJECT_NAME    = STARLINK-36905
OBJECT_ID      = 2026-050K
CENTER_NAME    = EARTH
REF_FRAME      = TEME
TIME_SYSTEM    = UTC
MEAN_ELEMENT_THEORY = SGP/SGP4

EPOCH          = 2026-04-01T12:06:20.582496
MEAN_MOTION    = 15.81031187
ECCENTRICITY   = .0001483
INCLINATION    = 53.1581
RA_OF_ASC_NODE = 167.4245
ARG_OF_PERICENTER = 75.6319
MEAN_ANOMALY   = 284.4868

EPHEMERIS_TYPE = 0
CLASSIFICATION_TYPE = U
NORAD_CAT_ID   = 68176
ELEMENT_SET_NO = 999
REV_AT_EPOCH   = 408
BSTAR          = .1739E-2
MEAN_MOTION_DOT = .359831E-2
MEAN_MOTION_DDOT = 0

CCSDS_OMM_VERS = 2.0
CREATION_DATE  = 
ORIGINATOR     = 

OBJECT_NAME    = STARLINK-36668
OBJECT_ID      = 2026-050L
CENTER_NAME    = EARTH
REF_FRAME      = TEME
TIME_SYSTEM    = UTC
MEAN_ELEMENT_THEORY = SGP/SGP4

EPOCH          = 2026-04-01T12:05:15.891360
MEAN_MOTION    = 15.80998763
ECCENTRICITY   = .0001462
INCLINATION    = 53.1586
RA_OF_ASC_NODE = 167.4193
ARG_OF_PERICENTER = 82.3415
MEAN_ANOMALY   = 277.7773

EPHEMERIS_TYPE = 0
CLASSIFICATION_TYPE = U
NORAD_CAT_ID   = 68177
ELEMENT_SET_NO = 999
REV_AT_EPOCH   = 408
BSTAR          = .14259E-2
MEAN_MOTION_DOT = .292141E-2
MEAN_MOTION_DDOT = 0

CCSDS_OMM_VERS = 2.0
CREATION_DATE  = 
ORIGINATOR     = 

OBJECT_NAME    = STARLINK-36677
OBJECT_ID      = 2026-050M
CENTER_NAME    = EARTH
REF_FRAME      = TEME
TIME_SYSTEM    = UTC
MEAN_ELEMENT_THEORY = SGP/SGP4

EPOCH          = 2026-04-01T12:04:11.091360
MEAN_MOTION    = 15.80991037
ECCENTRICITY   = .0001496
INCLINATION    = 53.1588
RA_OF_ASC_NODE = 167.4138
ARG_OF_PERICENTER = 112.2617
MEAN_ANOMALY   = 247.8564

EPHEMERIS_TYPE = 0
CLASSIFICATION_TYPE = U
NORAD_CAT_ID   = 68178
ELEMENT_SET_NO = 999
REV_AT_EPOCH   = 408
BSTAR          = .13606E-2
MEAN_MOTION_DOT = .278183E-2
MEAN_MOTION_DDOT = 0

CCSDS_OMM_VERS = 2.0
CREATION_DATE  = 
ORIGINATOR     = 

OBJECT_NAME    = STARLINK-37052
OBJECT_ID      = 2026-050N
CENTER_NAME    = EARTH
REF_FRAME      = TEME
TIME_SYSTEM    = UTC
MEAN_ELEMENT_THEORY = SGP/SGP4

EPOCH          = 2026-04-01T12:03:06.344928
MEAN_MOTION    = 15.80978238
ECCENTRICITY   = .0001467
INCLINATION    = 53.1584
RA_OF_ASC_NODE = 167.4094
ARG_OF_PERICENTER = 64.5239
MEAN_ANOMALY   = 295.5935

EPHEMERIS_TYPE = 0
CLASSIFICATION_TYPE = U
NORAD_CAT_ID   = 68179
ELEMENT_SET_NO = 999
REV_AT_EPOCH   = 408
BSTAR          = .12196E-2
MEAN_MOTION_DOT = .248249E-2
MEAN_MOTION_DDOT = 0

CCSDS_OMM_VERS = 2.0
CREATION_DATE  = 
ORIGINATOR     = 

OBJECT_NAME    = STARLINK-37035
OBJECT_ID      = 2026-050P
CENTER_NAME    = EARTH
REF_FRAME      = TEME
TIME_SYSTEM    = UTC
MEAN_ELEMENT_THEORY = SGP/SGP4

EPOCH          = 2026-04-01T12:02:01.506912
MEAN_MOTION    = 15.80988774
ECCENTRICITY   = .0001414
INCLINATION    = 53.1585
RA_OF_ASC_NODE = 167.4040
ARG_OF_PERICENTER = 107.3191
MEAN_ANOMALY   = 252.7986

EPHEMERIS_TYPE = 0
CLASSIFICATION_TYPE = U
NORAD_CAT_ID   = 68180
ELEMENT_SET_NO = 999
REV_AT_EPOCH   = 408
BSTAR          = .139E-2
MEAN_MOTION_DOT = .284391E-2
MEAN_MOTION_DDOT = 0

CCSDS_OMM_VERS = 2.0
CREATION_DATE  = 
ORIGINATOR     = 

OBJECT_NAME    = STARLINK-37032
OBJECT_ID      = 2026-050Q
CENTER_NAME    = EARTH
REF_FRAME      = TEME
TIME_SYSTEM    = UTC
MEAN_ELEMENT_THEORY = SGP/SGP4

EPOCH          = 2026-04-01T12:00:56.835648
MEAN_MOTION    = 15.80960332
ECCENTRICITY   = .0001063
INCLINATION    = 53.1588
RA_OF_ASC_NODE = 167.3995
ARG_OF_PERICENTER = 69.7375
MEAN_ANOMALY   = 290.3762

EPHEMERIS_TYPE = 0
CLASSIFICATION_TYPE = U
NORAD_CAT_ID   = 68181
ELEMENT_SET_NO = 999
REV_AT_EPOCH   = 408
BSTAR          = .10586E-2
MEAN_MOTION_DOT = .214371E-2
MEAN_MOTION_DDOT = 0

CCSDS_OMM_VERS = 2.0
CREATION_DATE  = 
ORIGINATOR     = 

OBJECT_NAME    = STARLINK-37082
OBJECT_ID      = 2026-050R
CENTER_NAME    = EARTH
REF_FRAME      = TEME
TIME_SYSTEM    = UTC
MEAN_ELEMENT_THEORY = SGP/SGP4

EPOCH          = 2026-04-01T11:59:51.866304
MEAN_MOTION    = 15.80989961
ECCENTRICITY   = .0001091
INCLINATION    = 53.1585
RA_OF_ASC_NODE = 167.3939
ARG_OF_PERICENTER = 93.1983
MEAN_ANOMALY   = 266.9165

EPHEMERIS_TYPE = 0
CLASSIFICATION_TYPE = U
NORAD_CAT_ID   = 68182
ELEMENT_SET_NO = 999
REV_AT_EPOCH   = 408
BSTAR          = .14455E-2
MEAN_MOTION_DOT = .296192E-2
MEAN_MOTION_DDOT = 0

CCSDS_OMM_VERS = 2.0
CREATION_DATE  = 
ORIGINATOR     = 

OBJECT_NAME    = STARLINK-37102
OBJECT_ID      = 2026-050S
CENTER_NAME    = EARTH
REF_FRAME      = TEME
TIME_SYSTEM    = UTC
MEAN_ELEMENT_THEORY = SGP/SGP4

EPOCH          = 2026-04-01T11:58:47.353152
MEAN_MOTION    = 15.80955919
ECCENTRICITY   = .0001803
INCLINATION    = 53.1588
RA_OF_ASC_NODE = 167.3895
ARG_OF_PERICENTER = 34.0285
MEAN_ANOMALY   = 326.0853

EPHEMERIS_TYPE = 0
CLASSIFICATION_TYPE = U
NORAD_CAT_ID   = 68183
ELEMENT_SET_NO = 999
REV_AT_EPOCH   = 408
BSTAR          = .11405E-2
MEAN_MOTION_DOT = .231413E-2
MEAN_MOTION_DDOT = 0

CCSDS_OMM_VERS = 2.0
CREATION_DATE  = 
ORIGINATOR     = 

OBJECT_NAME    = STARLINK-36964
OBJECT_ID      = 2026-050T
CENTER_NAME    = EARTH
REF_FRAME      = TEME
TIME_SYSTEM    = UTC
MEAN_ELEMENT_THEORY = SGP/SGP4

EPOCH          = 2026-04-01T11:57:42.180768
MEAN_MOTION    = 15.80994887
ECCENTRICITY   = .0000749
INCLINATION    = 53.1588
RA_OF_ASC_NODE = 167.3845
ARG_OF_PERICENTER = 99.4903
MEAN_ANOMALY   = 260.6205

EPHEMERIS_TYPE = 0
CLASSIFICATION_TYPE = U
NORAD_CAT_ID   = 68184
ELEMENT_SET_NO = 999
REV_AT_EPOCH   = 408
BSTAR          = .15088E-2
MEAN_MOTION_DOT = .309755E-2
MEAN_MOTION_DDOT = 0

CCSDS_OMM_VERS = 2.0
CREATION_DATE  = 
ORIGINATOR     = 

OBJECT_NAME    = STARLINK-37061
OBJECT_ID      = 2026-050U
CENTER_NAME    = EARTH
REF_FRAME      = TEME
TIME_SYSTEM    = UTC
MEAN_ELEMENT_THEORY = SGP/SGP4

EPOCH          = 2026-04-01T11:56:37.176864
MEAN_MOTION    = 15.81016175
ECCENTRICITY   = .0000912
INCLINATION    = 53.1585
RA_OF_ASC_NODE = 167.3791
ARG_OF_PERICENTER = 89.8538
MEAN_ANOMALY   = 270.2590

EPHEMERIS_TYPE = 0
CLASSIFICATION_TYPE = U
NORAD_CAT_ID   = 68185
ELEMENT_SET_NO = 999
REV_AT_EPOCH   = 408
BSTAR          = .14443E-2
MEAN_MOTION_DOT = .296318E-2
MEAN_MOTION_DDOT = 0

