STARLINK-37078          
1 68174U 26050H   26091.50590535  .00361214  00000+0  17468-2 0  9993
2 68174  53.1582 167.4349 0001096 110.1221 249.9920 15.81012905  4089
STARLINK-36886          
1 68175U 26050J   26091.50515639  .00288020  00000+0  14069-2 0  9993
2 68175  53.1587 167.4299 0000842 104.1389 255.9727 15.80992620  4087
STARLINK-36905          
1 68176U 26050K   26091.50440489  .00359831  00000+0  17390-2 0  9993
2 68176  53.1581 167.4245 0001483  75.6319 284.4868 15.81031187  4086
STARLINK-36668          
1 68177U 26050L   26091.50365615  .00292141  00000+0  14259-2 0  9992
2 68177  53.1586 167.4193 0001462  82.3415 277.7773 15.80998763  4084
STARLINK-36677          
1 68178U 26050M   26091.50290615  .00278183  00000+0  13606-2 0  9995
2 68178  53.1588 167.4138 0001496 112.2617 247.8564 15.80991037  4083
STARLINK-37052          
1 68179U 26050N   26091.50215677  .00248249  00000+0  12196-2 0  9994
2 68179  53.1584 167.4094 0001467  64.5239 295.5935 15.80978238  4088
STARLINK-37035          
1 68180U 26050P   26091.50140633  .00284391  00000+0  13900-2 0  9997
2 68180  53.1585 167.4040 0001414 107.3191 252.7986 15.80988774  4084
STARLINK-37032          
1 68181U 26050Q   26091.50065782  .00214371  00000+0  10586-2 0  9997
2 68181  53.1588 167.3995 0001063  69.7375 290.3762 15.80960332  4081
STARLINK-37082          
1 68182U 26050R   26091.49990586  .00296192  00000+0  14455-2 0  9995
2 68182  53.1585 167.3939 0001091  93.1983 266.9165 15.80989961  4089
STARLINK-37102          
1 68183U 26050S   26091.49915918  .00231413  00000+0  11405-2 0  9999
2 68183  53.1588 167.3895 0001803  34.0285 326.0853 15.80955919  4082
STARLINK-36964          
1 68184U 26050T   26091.49840487  .00309755  00000+0  15088-2 0  9994
2 68184  53.1588 167.3845 0000749  99.4903 260.6205 15.80994887  4089
STARLINK-37061          
1 68185U 26050U   26091.49765251  .00296318  00000+0  14443-2 0  9994
2 68185  53.1585 167.3791 0000912  89.8538 270.2590 15.81016175  4086
